[
  {
    "name": "STARLINK-34548",
    "noradId": "64716",
    "line1": "1 64716U 25142W   26180.97941808  .00002752  00000+0  23834-3 0  9999",
    "line2": "2 64716  70.0014  31.2146 0003076 266.6022  93.4785 14.98336228 56288"
  },
  {
    "name": "STARLINK-34568",
    "noradId": "64717",
    "line1": "1 64717U 25142X   26181.00446303  .00004088  00000+0  35012-3 0  9990",
    "line2": "2 64717  70.0012  31.3024 0003109 268.2877  91.7926 14.98340634 56314"
  },
  {
    "name": "STARLINK-34546",
    "noradId": "64718",
    "line1": "1 64718U 25142Y   26180.97107066  .00002904  00000+0  25099-3 0  9995",
    "line2": "2 64718  70.0012  31.1846 0002924 268.4755  91.6069 14.98347746 56471"
  },
  {
    "name": "STARLINK-34577",
    "noradId": "64719",
    "line1": "1 64719U 25142Z   26181.00865529  .00006329  00000+0  53757-3 0  9993",
    "line2": "2 64719  70.0015  31.2826 0002485 258.1528 101.9353 14.98342558 56310"
  },
  {
    "name": "STARLINK-34572",
    "noradId": "64720",
    "line1": "1 64720U 25142AA  26181.00028971  .00003600  00000+0  30932-3 0  9996",
    "line2": "2 64720  70.0014  31.2861 0002755 268.2672  91.8171 14.98338388 56470"
  },
  {
    "name": "STARLINK-34558",
    "noradId": "64721",
    "line1": "1 64721U 25142AB  26181.53453447  .00002290  00000+0  19960-3 0  9997",
    "line2": "2 64721  70.0015  29.9359 0002550 268.2809  91.8058 14.98336413 56362"
  },
  {
    "name": "STARLINK-34393",
    "noradId": "64724",
    "line1": "1 64724U 25144A   26181.83335647 -.00001632  00000+0 -37205-4 0  9990",
    "line2": "2 64724  53.1603  15.1764 0001455  82.7996 120.5358 15.34382116  5859"
  },
  {
    "name": "STARLINK-34562",
    "noradId": "64725",
    "line1": "1 64725U 25144B   26180.92876304  .00014794  00000+0  51043-3 0  9996",
    "line2": "2 64725  53.1583  19.8866 0001206 113.0850 247.0279 15.30211378 56874"
  },
  {
    "name": "STARLINK-34557",
    "noradId": "64726",
    "line1": "1 64726U 25144C   26181.56080796  .00023958  00000+0  81808-3 0  9994",
    "line2": "2 64726  53.1595  16.7195 0000940  83.0274 277.0834 15.30213856 56995"
  },
  {
    "name": "STARLINK-34242",
    "noradId": "64727",
    "line1": "1 64727U 25144D   26180.93616944  .00023900  00000+0  81635-3 0  9990",
    "line2": "2 64727  53.1588  19.9321 0000850  70.2870 289.8223 15.30204867 56898"
  },
  {
    "name": "STARLINK-34239",
    "noradId": "64728",
    "line1": "1 64728U 25144E   26181.83335647  .00000457  00000+0  24667-4 0  9994",
    "line2": "2 64728  53.1600  15.3343 0001363  83.4352  38.5061 15.34376240  5734"
  },
  {
    "name": "STARLINK-34588",
    "noradId": "64729",
    "line1": "1 64729U 25144F   26180.85712075  .00022528  00000+0  77017-3 0  9999",
    "line2": "2 64729  53.1586  20.1475 0001137  52.8935 307.2169 15.30210564 56883"
  },
  {
    "name": "STARLINK-34606",
    "noradId": "64730",
    "line1": "1 64730U 25144G   26181.83335647  .00017404  00000+0  52571-3 0  9991",
    "line2": "2 64730  53.1604  15.2679 0000404 354.9704 161.9178 15.34358509  5912"
  },
  {
    "name": "STARLINK-34552",
    "noradId": "64731",
    "line1": "1 64731U 25144H   26180.95819890  .00020473  00000+0  70117-3 0  9997",
    "line2": "2 64731  53.1607  19.3529 0000928  74.7069 285.4034 15.30212924 56901"
  },
  {
    "name": "STARLINK-34596",
    "noradId": "64732",
    "line1": "1 64732U 25144J   26181.14312459  .00029530  00000+0  88152-3 0  9990",
    "line2": "2 64732  53.1608  18.3800 0001081  80.9671 279.1454 15.34405970 56931"
  },
  {
    "name": "STARLINK-34556",
    "noradId": "64733",
    "line1": "1 64733U 25144K   26181.55862502  .00038161  00000+0  11343-2 0  9992",
    "line2": "2 64733  53.1590  12.4491 0000757  90.0014 270.1076 15.34414566 57051"
  },
  {
    "name": "STARLINK-34591",
    "noradId": "64734",
    "line1": "1 64734U 25144L   26180.83179272  .00022458  00000+0  76793-3 0  9991",
    "line2": "2 64734  53.1600  19.9893 0000922  89.5790 270.5317 15.30206682 56864"
  },
  {
    "name": "STARLINK-34587",
    "noradId": "64735",
    "line1": "1 64735U 25144M   26180.92665174  .00020317  00000+0  69588-3 0  9999",
    "line2": "2 64735  53.1584  19.8750 0000797 110.9525 249.1561 15.30215350 56845"
  },
  {
    "name": "STARLINK-34130",
    "noradId": "64736",
    "line1": "1 64736U 25144N   26181.83335647  .00011968  00000+0  36503-3 0  9993",
    "line2": "2 64736  53.1601  15.3548 0001543  78.4641  31.8208 15.34377178  5916"
  },
  {
    "name": "STARLINK-34619",
    "noradId": "64737",
    "line1": "1 64737U 25144P   26180.94037111  .00019797  00000+0  67853-3 0  9990",
    "line2": "2 64737  53.1605  19.9523 0001000  88.2742 271.8373 15.30210335 56892"
  },
  {
    "name": "STARLINK-34597",
    "noradId": "64738",
    "line1": "1 64738U 25144Q   26181.60290597  .00015568  00000+0  53669-3 0  9996",
    "line2": "2 64738  53.1600  16.2692 0001797 112.2926 247.8265 15.30197477 56984"
  },
  {
    "name": "STARLINK-34471",
    "noradId": "64739",
    "line1": "1 64739U 25144R   26180.92348741  .00016929  00000+0  58231-3 0  9998",
    "line2": "2 64739  53.1585  19.8479 0000940 100.8432 259.2675 15.30204803 56831"
  },
  {
    "name": "STARLINK-34208",
    "noradId": "64740",
    "line1": "1 64740U 25144S   26181.49980038  .00020859  00000+0  62682-3 0  9996",
    "line2": "2 64740  53.1584  12.7900 0000893 158.3915 201.7125 15.34397492 57041"
  },
  {
    "name": "STARLINK-34205",
    "noradId": "64741",
    "line1": "1 64741U 25144T   26180.95402759  .00025671  00000+0  76795-3 0  9993",
    "line2": "2 64741  53.1608  19.3305 0000721  71.3467 288.7614 15.34414494 56901"
  },
  {
    "name": "STARLINK-34607",
    "noradId": "64742",
    "line1": "1 64742U 25144U   26180.92981700  .00016535  00000+0  56891-3 0  9993",
    "line2": "2 64742  53.1589  19.8866 0001196 102.0828 258.0307 15.30212789 56871"
  },
  {
    "name": "STARLINK-34236",
    "noradId": "64743",
    "line1": "1 64743U 25144V   26181.83335647  .00014451  00000+0  43844-3 0  9997",
    "line2": "2 64743  53.1601  15.2849 0000905  76.7156  68.4723 15.34369327  5915"
  },
  {
    "name": "STARLINK-34185",
    "noradId": "64744",
    "line1": "1 64744U 25144W   26180.95503233  .00022397  00000+0  76567-3 0  9994",
    "line2": "2 64744  53.1604  19.3310 0001025  72.7162 287.3951 15.30214709 56903"
  },
  {
    "name": "STARLINK-34581",
    "noradId": "64745",
    "line1": "1 64745U 25144X   26181.52609537  .00016376  00000+0  56378-3 0  9991",
    "line2": "2 64745  53.1602  17.2079 0001042  89.2009 270.9111 15.30202165 56980"
  },
  {
    "name": "STARLINK-34592",
    "noradId": "64746",
    "line1": "1 64746U 25144Y   26181.52026473  .00030030  00000+0  10216-2 0  9997",
    "line2": "2 64746  53.1608   4.3925 0000905  91.8892 268.2213 15.30209557 57166"
  },
  {
    "name": "STARLINK-34589",
    "noradId": "64747",
    "line1": "1 64747U 25144Z   26181.52764201  .00028156  00000+0  95906-3 0  9992",
    "line2": "2 64747  53.1596   4.3723 0001031  81.3535 278.7583 15.30202856 57169"
  }
]