OBJECT_NAME,OBJECT_ID,EPOCH,MEAN_MOTION,ECCENTRICITY,INCLINATION,RA_OF_ASC_NODE,ARG_OF_PERICENTER,MEAN_ANOMALY,EPHEMERIS_TYPE,CLASSIFICATION_TYPE,NORAD_CAT_ID,ELEMENT_SET_NO,REV_AT_EPOCH,BSTAR,MEAN_MOTION_DOT,MEAN_MOTION_DDOT
STARLINK-34548,2025-142W,2026-06-29T23:30:21.722112,14.98336228,.0003076,70.0014,31.2146,266.6022,93.4785,0,U,64716,999,5628,.23833956E-3,.2752E-4,0
STARLINK-34568,2025-142X,2026-06-30T00:06:25.605792,14.98340634,.00031094,70.0012,31.3024,268.2877,91.7926,0,U,64717,999,5631,.35012025E-3,.4088E-4,0
STARLINK-34546,2025-142Y,2026-06-29T23:18:20.505024,14.98347746,.00029241,70.0012,31.1846,268.4755,91.6069,0,U,64718,999,5647,.25099214E-3,.2904E-4,0
STARLINK-34577,2025-142Z,2026-06-30T00:12:27.817056,14.98342558,.00024852,70.0015,31.2826,258.1528,101.9353,0,U,64719,999,5631,.53757398E-3,.6329E-4,0
STARLINK-34572,2025-142AA,2026-06-30T00:00:25.030944,14.98338388,.00027554,70.0014,31.2861,268.2672,91.8171,0,U,64720,999,5647,.3093175E-3,.36E-4,0
STARLINK-34558,2025-142AB,2026-06-30T12:49:43.778208,14.98336413,.00025508,70.0015,29.9359,268.2809,91.8058,0,U,64721,999,5636,.19959504E-3,.229E-4,0
STARLINK-34393,2025-144A,2026-06-30T20:00:01.999008,15.34382116,.0001455,53.1603,15.1764,82.7996,120.5358,0,U,64724,999,585,-.37205E-4,-.1632E-4,0
STARLINK-34562,2025-144B,2026-06-29T22:17:25.126656,15.30211378,.00012068,53.1583,19.8866,113.0850,247.0279,0,U,64725,999,5687,.51043427E-3,.14794E-3,0
STARLINK-34557,2025-144C,2026-06-30T13:27:33.807744,15.30213856,.000094,53.1595,16.7195,83.0274,277.0834,0,U,64726,999,5699,.81808E-3,.23958E-3,0
STARLINK-34242,2025-144D,2026-06-29T22:28:05.039616,15.30204867,.00008508,53.1588,19.9321,70.2870,289.8223,0,U,64727,999,5689,.81634613E-3,.239E-3,0
STARLINK-34239,2025-144E,2026-06-30T20:00:01.999008,15.34376240,.0001363,53.1600,15.3343,83.4352,38.5061,0,U,64728,999,573,.24667E-4,.457E-5,0
STARLINK-34588,2025-144F,2026-06-29T20:34:15.232800,15.30210564,.00011373,53.1586,20.1475,52.8935,307.2169,0,U,64729,999,5688,.77016607E-3,.22528E-3,0
STARLINK-34606,2025-144G,2026-06-30T20:00:01.999008,15.34358509,.0000404,53.1604,15.2679,354.9704,161.9178,0,U,64730,999,591,.52571E-3,.17404E-3,0
STARLINK-34552,2025-144H,2026-06-29T22:59:48.384960,15.30212924,.00009288,53.1607,19.3529,74.7069,285.4034,0,U,64731,999,5690,.70117213E-3,.20473E-3,0
STARLINK-34596,2025-144J,2026-06-30T03:26:05.964576,15.34405970,.00010813,53.1608,18.3800,80.9671,279.1454,0,U,64732,999,5693,.88151661E-3,.2953E-3,0
STARLINK-34556,2025-144K,2026-06-30T13:24:25.201728,15.34414566,.00007578,53.1590,12.4491,90.0014,270.1076,0,U,64733,999,5705,.11342939E-2,.38161E-3,0
STARLINK-34591,2025-144L,2026-06-29T19:57:46.891008,15.30206682,.00009221,53.1600,19.9893,89.5790,270.5317,0,U,64734,999,5686,.76792574E-3,.22458E-3,0
STARLINK-34587,2025-144M,2026-06-29T22:14:22.710336,15.30215350,.00007973,53.1584,19.8750,110.9525,249.1561,0,U,64735,999,5684,.69587504E-3,.20317E-3,0
STARLINK-34130,2025-144N,2026-06-30T20:00:01.999008,15.34377178,.0001543,53.1601,15.3548,78.4641,31.8208,0,U,64736,999,591,.36503E-3,.11968E-3,0
STARLINK-34619,2025-144P,2026-06-29T22:34:08.063904,15.30210335,.00010006,53.1605,19.9523,88.2742,271.8373,0,U,64737,999,5689,.67852728E-3,.19797E-3,0
STARLINK-34597,2025-144Q,2026-06-30T14:28:11.075808,15.30197477,.0001797,53.1600,16.2692,112.2926,247.8265,0,U,64738,999,5698,.53669E-3,.15568E-3,0
STARLINK-34471,2025-144R,2026-06-29T22:09:49.312224,15.30204803,.00009401,53.1585,19.8479,100.8432,259.2675,0,U,64739,999,5683,.58231278E-3,.16929E-3,0
STARLINK-34208,2025-144S,2026-06-30T11:59:42.752832,15.34397492,.00008934,53.1584,12.7900,158.3915,201.7125,0,U,64740,999,5704,.6268241E-3,.20859E-3,0
STARLINK-34205,2025-144T,2026-06-29T22:53:47.983776,15.34414494,.00007212,53.1608,19.3305,71.3467,288.7614,0,U,64741,999,5690,.76794612E-3,.25671E-3,0
STARLINK-34607,2025-144U,2026-06-29T22:18:56.188800,15.30212789,.00011965,53.1589,19.8866,102.0828,258.0307,0,U,64742,999,5687,.56891349E-3,.16535E-3,0
STARLINK-34236,2025-144V,2026-06-30T20:00:01.999008,15.34369327,.0000905,53.1601,15.2849,76.7156,68.4723,0,U,64743,999,591,.43844E-3,.14451E-3,0
STARLINK-34185,2025-144W,2026-06-29T22:55:14.793312,15.30214709,.00010253,53.1604,19.3310,72.7162,287.3951,0,U,64744,999,5690,.7656745E-3,.22397E-3,0
STARLINK-34581,2025-144X,2026-06-30T12:37:34.639968,15.30202165,.00010429,53.1602,17.2079,89.2009,270.9111,0,U,64745,999,5698,.56378079E-3,.16376E-3,0
STARLINK-34592,2025-144Y,2026-06-30T12:29:10.872672,15.30209557,.00009055,53.1608,4.3925,91.8892,268.2213,0,U,64746,999,5716,.10216298E-2,.3003E-3,0
STARLINK-34589,2025-144Z,2026-06-30T12:39:48.269664,15.30202856,.00010315,53.1596,4.3723,81.3535,278.7583,0,U,64747,999,5716,.95905873E-3,.28156E-3,0
